{
  "norad_id": 28874,
  "name": "NAVSTAR 57 (USA 183)",
  "history": [
    {
      "epoch": "2026-04-17T12:52:36.035616Z",
      "apogee_km": 20521.26370366768,
      "perigee_km": 19842.062157550183,
      "latitude_deg": 7.514169609100833,
      "longitude_deg": -117.8988348555049,
      "height_km": 20080.790377825906,
      "semi_major_axis_km": 26559.79993060893,
      "eccentricity": 0.01278627,
      "inclination_deg": 54.929,
      "raan_deg": 275.6234,
      "arg_perigee_deg": 295.7888,
      "mean_anomaly_deg": 71.9591,
      "mean_motion_rev_day": 2.0056981
    },
    {
      "epoch": "2026-04-18T11:36:11.049408Z",
      "apogee_km": 20521.248107072504,
      "perigee_km": 19842.092585383576,
      "latitude_deg": -22.305060425683052,
      "longitude_deg": -121.79550652556044,
      "height_km": 19913.549272462762,
      "semi_major_axis_km": 26559.807346228037,
      "eccentricity": 0.0127854,
      "inclination_deg": 54.9283,
      "raan_deg": 275.5852,
      "arg_perigee_deg": 295.7979,
      "mean_anomaly_deg": 35.7057,
      "mean_motion_rev_day": 2.00569726
    },
    {
      "epoch": "2026-04-19T00:29:37.401792Z",
      "apogee_km": 20521.23486401077,
      "perigee_km": 19842.11324406829,
      "latitude_deg": 0.5683426430649506,
      "longitude_deg": 61.41110930088931,
      "height_km": 20034.569736292222,
      "semi_major_axis_km": 26559.81105403953,
      "eccentricity": 0.01278476,
      "inclination_deg": 54.9279,
      "raan_deg": 275.5635,
      "arg_perigee_deg": 295.8012,
      "mean_anomaly_deg": 63.5361,
      "mean_motion_rev_day": 2.00569684
    },
    {
      "epoch": "2026-04-20T11:50:09.310848Z",
      "apogee_km": 20521.197598811246,
      "perigee_km": 19842.169754587165,
      "latitude_deg": -13.240846550205758,
      "longitude_deg": -120.12879172235061,
      "height_km": 19955.029391630032,
      "semi_major_axis_km": 26559.820676699204,
      "eccentricity": 0.01278299,
      "inclination_deg": 54.9267,
      "raan_deg": 275.5041,
      "arg_perigee_deg": 295.8137,
      "mean_anomaly_deg": 46.8432,
      "mean_motion_rev_day": 2.00569575
    },
    {
      "epoch": "2026-04-21T06:29:38.424768Z",
      "apogee_km": 20521.190120013125,
      "perigee_km": 19842.186591207428,
      "latitude_deg": -2.2433760437942696,
      "longitude_deg": 150.27384125065348,
      "height_km": 20311.7391709902,
      "semi_major_axis_km": 26559.825355610275,
      "eccentricity": 0.01278253,
      "inclination_deg": 54.926,
      "raan_deg": 275.4728,
      "arg_perigee_deg": 295.8207,
      "mean_anomaly_deg": 248.1907,
      "mean_motion_rev_day": 2.00569522
    },
    {
      "epoch": "2026-04-22T11:30:02.939616Z",
      "apogee_km": 20521.154332651386,
      "perigee_km": 19842.236150465826,
      "latitude_deg": -18.09990851965804,
      "longitude_deg": -120.89063137026545,
      "height_km": 19931.615136844044,
      "semi_major_axis_km": 26559.832241558604,
      "eccentricity": 0.01278092,
      "inclination_deg": 54.925,
      "raan_deg": 275.424,
      "arg_perigee_deg": 295.829,
      "mean_anomaly_deg": 40.8926,
      "mean_motion_rev_day": 2.00569444
    },
    {
      "epoch": "2026-04-24T12:08:43.209024Z",
      "apogee_km": 20521.113351649517,
      "perigee_km": 19842.29690651444,
      "latitude_deg": 1.324464999770649,
      "longitude_deg": -118.45745943830238,
      "height_km": 20039.238737730688,
      "semi_major_axis_km": 26559.842129081975,
      "eccentricity": 0.012779,
      "inclination_deg": 54.9233,
      "raan_deg": 275.3423,
      "arg_perigee_deg": 295.8414,
      "mean_anomaly_deg": 64.4171,
      "mean_motion_rev_day": 2.00569332
    },
    {
      "epoch": "2026-04-25T18:24:38.603808Z",
      "apogee_km": 20521.108360519793,
      "perigee_km": 19842.31302111602,
      "latitude_deg": -7.776122487571122,
      "longitude_deg": -29.16516667576929,
      "height_km": 20274.76377837536,
      "semi_major_axis_km": 26559.847690817904,
      "eccentricity": 0.0127786,
      "inclination_deg": 54.9222,
      "raan_deg": 275.2914,
      "arg_perigee_deg": 295.8447,
      "mean_anomaly_deg": 254.9889,
      "mean_motion_rev_day": 2.00569269
    }
  ]
}